{"type": "FeatureCollection", "features": [{"type": "Feature", "geometry": {"type": "Polygon", "coordinates": [[[16.859411, 46.364758], [16.712395, 46.412672], [16.659272, 46.464193], [16.344149, 46.546979], [16.234905, 46.493339], [16.279936, 46.378661], [16.361255, 46.319964], [16.483831, 46.301774], [16.585634, 46.31676], [16.745159, 46.305701], [16.814974, 46.28441], [16.859411, 46.364758]]]}, "properties": {"name": "Medjimurje", "code": "ČK", "id": "ck"}}, {"type": "Feature", "geometry": {"type": "Polygon", "coordinates": [[[17.306613, 45.979914], [17.216862, 45.980966], [17.135109, 45.915854], [17.14038, 45.870275], [17.27722, 45.803303], [17.385223, 45.702534], [17.491987, 45.675145], [17.430544, 45.574686], [17.517102, 45.57634], [17.650427, 45.515465], [17.879147, 45.470713], [18.083217, 45.63029], [17.948031, 45.724186], [17.906234, 45.792141], [17.656524, 45.84542], [17.591102, 45.936215], [17.306613, 45.979914]]]}, "properties": {"name": "Virovitica-Podravina", "code": "VT", "id": "vt"}}, {"type": "Feature", "geometry": {"type": "Polygon", "coordinates": [[[17.306613, 45.979914], [17.197327, 46.121165], [17.116195, 46.123129], [16.974808, 46.210565], [16.889232, 46.292163], [16.859411, 46.364758], [16.814974, 46.28441], [16.745159, 46.305701], [16.757872, 46.247048], [16.663975, 46.20085], [16.596021, 46.203123], [16.446573, 46.135375], [16.349628, 46.122508], [16.35924, 46.024633], [16.51985, 45.975489], [16.601137, 45.926964], [16.692553, 45.924226], [16.741128, 46.045717], [16.865875, 46.077446], [16.904633, 46.008768], [17.14038, 45.870275], [17.135109, 45.915854], [17.216862, 45.980966], [17.306613, 45.979914]]]}, "properties": {"name": "Koprivnica-Križevci", "code": "KC", "id": "kc"}}, {"type": "Feature", "geometry": {"type": "Polygon", "coordinates": [[[19.002282, 45.443686], [19.018095, 45.567401], [18.941717, 45.538927], [18.912365, 45.619232], [18.968485, 45.668738], [18.844978, 45.815706], [18.872884, 45.895236], [18.76333, 45.88397], [18.674343, 45.910377], [18.57347, 45.816688], [18.411723, 45.743204], [18.317672, 45.747286], [18.211219, 45.785372], [18.080477, 45.771729], [17.906234, 45.792141], [17.948031, 45.724186], [18.083217, 45.63029], [18.207654, 45.597734], [18.19427, 45.535102], [18.304651, 45.492779], [18.086628, 45.358007], [18.081615, 45.271501], [18.200988, 45.225405], [18.326665, 45.246386], [18.536936, 45.193521], [18.511925, 45.292585], [18.632331, 45.32142], [18.655017, 45.391648], [18.786895, 45.413559], [18.796352, 45.463685], [18.882186, 45.478103], [19.002282, 45.443686]]]}, "properties": {"name": "Osijek-Baranja", "code": "OS", "id": "os"}}, {"type": "Feature", "geometry": {"type": "Polygon", "coordinates": [[[14.117321, 45.472976], [13.971891, 45.514226], [13.969824, 45.462963], [13.889002, 45.423637], [13.759294, 45.463169], [13.64292, 45.45943], [13.507091, 45.511908], [13.513357, 45.436225], [13.595714, 45.240546], [13.595958, 45.145413], [13.643809, 45.070502], [13.774099, 44.963813], [13.860037, 44.82567], [13.972667, 44.826646], [14.075694, 44.98371], [14.163748, 44.995754], [14.154063, 45.071967], [14.234682, 45.154574], [14.202627, 45.171558], [14.203557, 45.403947], [14.117321, 45.472976]]]}, "properties": {"name": "Istrien", "code": "PU", "id": "pu"}}, {"type": "Feature", "geometry": {"type": "MultiPolygon", "coordinates": [[[[18.437355, 42.559212], [18.224138, 42.628071], [17.858475, 42.816974], [17.826229, 42.888649], [17.701586, 42.9195], [17.641612, 42.884467], [17.518891, 42.908149], [17.390473, 42.977729], [17.240245, 43.022773], [17.073253, 43.024156], [17.095388, 42.984442], [17.201915, 42.98432], [17.44044, 42.873358], [17.72877, 42.800767], [17.806651, 42.811916], [17.901622, 42.751899], [18.047862, 42.690619], [18.07602, 42.651313], [18.21754, 42.620103], [18.238943, 42.559068], [18.411876, 42.47602], [18.437355, 42.559212]]], [[[17.450913, 43.148152], [17.365369, 43.079247], [17.515636, 42.958889], [17.662725, 42.965699], [17.587381, 43.082126], [17.450913, 43.148152]]], [[[17.131847, 42.96955], [17.032074, 42.982611], [16.824067, 42.962104], [16.72047, 42.990058], [16.638438, 42.93476], [16.85141, 42.900702], [16.972911, 42.926703], [17.107432, 42.914293], [17.131847, 42.96955]]]]}, "properties": {"name": "Dubrovnik-Neretva", "code": "DU", "id": "du"}}, {"type": "Feature", "geometry": {"type": "Polygon", "coordinates": [[[15.802569, 45.196473], [15.997504, 45.218533], [16.104061, 45.112545], [16.212994, 45.031464], [16.340635, 45.005936], [16.38177, 45.107584], [16.481919, 45.199516], [16.587028, 45.220858], [16.786293, 45.178846], [16.93264, 45.278788], [17.124628, 45.169058], [17.081573, 45.216103], [17.181205, 45.34793], [17.061987, 45.378161], [16.929179, 45.475881], [16.790738, 45.609051], [16.616795, 45.662846], [16.50073, 45.721964], [16.496699, 45.765062], [16.381564, 45.812036], [16.373192, 45.749042], [16.293921, 45.727855], [16.297331, 45.642279], [16.237903, 45.596752], [16.147883, 45.634114], [16.049491, 45.581042], [16.110779, 45.50637], [16.046545, 45.475881], [15.935906, 45.474796], [15.902265, 45.527712], [15.812865, 45.523423], [15.842527, 45.465907], [15.814105, 45.398676], [15.676491, 45.425186], [15.639387, 45.210677], [15.802569, 45.196473]]]}, "properties": {"name": "Sisak-Moslavina", "code": "SK", "id": "sk"}}, {"type": "Feature", "geometry": {"type": "Polygon", "coordinates": [[[17.124628, 45.169058], [17.572395, 45.120399], [17.684739, 45.163963], [17.835738, 45.064434], [17.902607, 45.077766], [17.988493, 45.143809], [18.090296, 45.107997], [18.192512, 45.108514], [18.237884, 45.157451], [18.392913, 45.118642], [18.466087, 45.074046], [18.534803, 45.088412], [18.536936, 45.193521], [18.326665, 45.246386], [18.200988, 45.225405], [18.081615, 45.271501], [17.918576, 45.288605], [17.844524, 45.224217], [17.745408, 45.185563], [17.701638, 45.258736], [17.57715, 45.276823], [17.39158, 45.387256], [17.25071, 45.38059], [17.181205, 45.34793], [17.081573, 45.216103], [17.124628, 45.169058]]]}, "properties": {"name": "Slavonski Brod-Posavina", "code": "SB", "id": "sb"}}, {"type": "Feature", "geometry": {"type": "Polygon", "coordinates": [[[15.802569, 45.196473], [15.639387, 45.210677], [15.676491, 45.425186], [15.814105, 45.398676], [15.842527, 45.465907], [15.812865, 45.523423], [15.731578, 45.588587], [15.626364, 45.621402], [15.557428, 45.605434], [15.420899, 45.695299], [15.350034, 45.669619], [15.268556, 45.601662], [15.296668, 45.522959], [15.361367, 45.482031], [15.225849, 45.43645], [15.221014, 45.374802], [15.122364, 45.293308], [15.029243, 45.328551], [14.970901, 45.268297], [14.970901, 45.149803], [15.008004, 45.124068], [15.125465, 45.105257], [15.194194, 45.125773], [15.376509, 45.026296], [15.464204, 44.924183], [15.566781, 44.878553], [15.537739, 44.918551], [15.65613, 44.947644], [15.734108, 44.93444], [15.802569, 45.196473]]]}, "properties": {"name": "Karlovac", "code": "KA", "id": "ka"}}, {"type": "Feature", "geometry": {"type": "Polygon", "coordinates": [[[15.734108, 44.93444], [15.65613, 44.947644], [15.537739, 44.918551], [15.566781, 44.878553], [15.601973, 44.796697], [15.476296, 44.729621], [15.516655, 44.704662], [15.562751, 44.581672], [15.653494, 44.494959], [15.591121, 44.457235], [15.615977, 44.379307], [15.545956, 44.330473], [15.494124, 44.368765], [15.328088, 44.411708], [15.293789, 44.364806], [15.281749, 44.285386], [15.157563, 44.280341], [15.144542, 44.195461], [15.358084, 44.025702], [15.466075, 43.921698], [15.54688, 43.876564], [15.739949, 43.869209], [15.838651, 43.939127], [15.90366, 43.909103], [15.996884, 43.94693], [16.032748, 44.012714], [16.148658, 44.026409], [16.154084, 43.944501], [16.231185, 43.918353], [16.350868, 43.926208], [16.527446, 43.967859], [16.403991, 44.058759], [16.326889, 44.082375], [16.215785, 44.208155], [16.116463, 44.52147], [16.006082, 44.541003], [16.044736, 44.589372], [15.895598, 44.718564], [15.805681, 44.696653], [15.717314, 44.786466], [15.773435, 44.845016], [15.734108, 44.93444]]]}, "properties": {"name": "Zadar", "code": "ZD", "id": "zd"}}, {"type": "Feature", "geometry": {"type": "Polygon", "coordinates": [[[18.534803, 45.088412], [18.689019, 45.080247], [18.788961, 45.005729], [18.772631, 44.942478], [18.889627, 44.86119], [19.004969, 44.863309], [19.131679, 44.953175], [19.085171, 44.987281], [19.082277, 45.084949], [19.046207, 45.128358], [19.141705, 45.162154], [19.390682, 45.169337], [19.378073, 45.229592], [19.28975, 45.23631], [19.104147, 45.298726], [18.975527, 45.39113], [19.002282, 45.443686], [18.882186, 45.478103], [18.796352, 45.463685], [18.786895, 45.413559], [18.655017, 45.391648], [18.632331, 45.32142], [18.511925, 45.292585], [18.536936, 45.193521], [18.534803, 45.088412]]]}, "properties": {"name": "Vukovar-Syrmien", "code": "VU", "id": "vu"}}, {"type": "Feature", "geometry": {"type": "MultiPolygon", "coordinates": [[[[16.527446, 43.967859], [16.350868, 43.926208], [16.34291, 43.884815], [16.426729, 43.831537], [16.356914, 43.778258], [16.34167, 43.709994], [16.228705, 43.67072], [16.160595, 43.682915], [16.045305, 43.596926], [16.077913, 43.543131], [16.012796, 43.503974], [16.098481, 43.480048], [16.150727, 43.511379], [16.336762, 43.551174], [16.433849, 43.54975], [16.625824, 43.449042], [16.880626, 43.405951], [17.073497, 43.238959], [17.316254, 43.127265], [17.365369, 43.079247], [17.450913, 43.148152], [17.328689, 43.260358], [17.267607, 43.353324], [17.286417, 43.437376], [17.239495, 43.478407], [17.084569, 43.513237], [16.82381, 43.707307], [16.712602, 43.771515], [16.678599, 43.840684], [16.527446, 43.967859]]], [[[16.241222, 43.071967], [16.09254, 43.08275], [16.087169, 43.011461], [16.210297, 43.033271], [16.241222, 43.071967]]], [[[16.693126, 43.127265], [16.751231, 43.161933], [16.659516, 43.215969], [16.535004, 43.227729], [16.44516, 43.170803], [16.693126, 43.127265]]], [[[16.500743, 43.284247], [16.628266, 43.263739], [16.846202, 43.273383], [16.809825, 43.353176], [16.687673, 43.377021], [16.493907, 43.38231], [16.421886, 43.317572], [16.500743, 43.284247]]]]}, "properties": {"name": "Split-Dalmatien", "code": "ST", "id": "st"}}, {"type": "Feature", "geometry": {"type": "Polygon", "coordinates": [[[16.279936, 46.378661], [16.057965, 46.377532], [16.038948, 46.308441], [15.879323, 46.259308], [15.959987, 46.193666], [16.24736, 46.18762], [16.255887, 46.061065], [16.35924, 46.024633], [16.349628, 46.122508], [16.446573, 46.135375], [16.596021, 46.203123], [16.663975, 46.20085], [16.757872, 46.247048], [16.745159, 46.305701], [16.585634, 46.31676], [16.483831, 46.301774], [16.361255, 46.319964], [16.279936, 46.378661]]]}, "properties": {"name": "Varaždin", "code": "VŽ", "id": "vz"}}, {"type": "Feature", "geometry": {"type": "Polygon", "coordinates": [[[15.879323, 46.259308], [15.749767, 46.210772], [15.661297, 46.21532], [15.58988, 46.113517], [15.697987, 46.036209], [15.675381, 45.972486], [15.822476, 45.982052], [15.939472, 45.933837], [15.965568, 45.911048], [16.136256, 45.970373], [16.255887, 46.061065], [16.24736, 46.18762], [15.959987, 46.193666], [15.879323, 46.259308]]]}, "properties": {"name": "Krapina-Zagorje", "code": "KR", "id": "kr"}}, {"type": "Feature", "geometry": {"type": "Polygon", "coordinates": [[[15.675381, 45.972486], [15.666051, 45.831674], [15.451284, 45.815137], [15.429063, 45.775295], [15.248919, 45.711836], [15.350034, 45.669619], [15.420899, 45.695299], [15.557428, 45.605434], [15.626364, 45.621402], [15.731578, 45.588587], [15.812865, 45.523423], [15.902265, 45.527712], [15.935906, 45.474796], [16.046545, 45.475881], [16.110779, 45.50637], [16.049491, 45.581042], [16.147883, 45.634114], [16.237903, 45.596752], [16.297331, 45.642279], [16.293921, 45.727855], [16.373192, 45.749042], [16.381564, 45.812036], [16.496699, 45.765062], [16.688367, 45.839166], [16.692553, 45.924226], [16.601137, 45.926964], [16.51985, 45.975489], [16.35924, 46.024633], [16.255887, 46.061065], [16.136256, 45.970373], [16.226845, 45.849605], [15.966617, 45.716923], [15.921488, 45.622384], [15.773125, 45.700363], [15.846919, 45.809401], [15.77142, 45.867537], [15.81674, 45.91017], [15.939472, 45.933837], [15.822476, 45.982052], [15.675381, 45.972486]]]}, "properties": {"name": "Zagreb (Gespanschaft)", "code": "ZG", "id": "zg"}}, {"type": "Feature", "geometry": {"type": "MultiPolygon", "coordinates": [[[[15.225849, 45.43645], [15.139262, 45.430045], [15.056166, 45.479912], [14.922634, 45.514949], [14.881603, 45.469784], [14.668489, 45.533966], [14.664045, 45.570036], [14.556145, 45.656697], [14.468915, 45.525594], [14.372797, 45.477845], [14.218698, 45.497172], [14.117321, 45.472976], [14.203557, 45.403947], [14.202627, 45.171558], [14.234682, 45.154574], [14.271983, 45.290107], [14.329763, 45.35399], [14.510509, 45.29975], [14.657888, 45.196601], [14.852794, 45.093655], [14.881343, 45.0356], [15.008004, 45.124068], [14.970901, 45.149803], [14.970901, 45.268297], [15.029243, 45.328551], [15.122364, 45.293308], [15.221014, 45.374802], [15.225849, 45.43645]]], [[[14.513927, 44.662177], [14.472179, 44.707953], [14.451915, 44.850898], [14.301524, 44.943427], [14.329845, 44.83393], [14.427908, 44.656562], [14.513927, 44.662177]]], [[[14.723399, 44.943345], [14.814952, 44.977484], [14.665294, 45.087348], [14.665294, 45.161811], [14.563324, 45.249742], [14.514008, 45.129055], [14.425059, 45.087348], [14.510509, 45.032172], [14.590668, 45.023261], [14.723399, 44.943345]]]]}, "properties": {"name": "Primorje-Gorski Kotar", "code": "RI", "id": "ri"}}, {"type": "Feature", "geometry": {"type": "Polygon", "coordinates": [[[16.012796, 43.503974], [16.077913, 43.543131], [16.045305, 43.596926], [16.160595, 43.682915], [16.228705, 43.67072], [16.34167, 43.709994], [16.356914, 43.778258], [16.426729, 43.831537], [16.34291, 43.884815], [16.350868, 43.926208], [16.231185, 43.918353], [16.154084, 43.944501], [16.148658, 44.026409], [16.032748, 44.012714], [15.996884, 43.94693], [15.90366, 43.909103], [15.838651, 43.939127], [15.739949, 43.869209], [15.54688, 43.876564], [15.931163, 43.6765], [15.917979, 43.593329], [16.012796, 43.503974]]]}, "properties": {"name": "Šibenik-Knin", "code": "ŠI", "id": "si"}}, {"type": "Feature", "geometry": {"type": "MultiPolygon", "coordinates": [[[[15.293789, 44.364806], [15.328088, 44.411708], [15.494124, 44.368765], [15.545956, 44.330473], [15.615977, 44.379307], [15.591121, 44.457235], [15.653494, 44.494959], [15.562751, 44.581672], [15.516655, 44.704662], [15.476296, 44.729621], [15.601973, 44.796697], [15.566781, 44.878553], [15.464204, 44.924183], [15.376509, 45.026296], [15.194194, 45.125773], [15.125465, 45.105257], [15.008004, 45.124068], [14.881343, 45.0356], [14.921641, 44.958808], [14.8838, 44.861477], [14.901378, 44.690172], [15.001313, 44.578518], [15.080089, 44.536078], [15.293789, 44.364806]]], [[[14.876964, 44.55976], [15.09669, 44.340033], [15.198904, 44.317043], [15.254405, 44.340033], [15.083263, 44.461859], [14.876964, 44.55976]]]]}, "properties": {"name": "Lika-Senj", "code": "GS", "id": "gs"}}, {"type": "Feature", "geometry": {"type": "Polygon", "coordinates": [[[17.14038, 45.870275], [16.904633, 46.008768], [16.865875, 46.077446], [16.741128, 46.045717], [16.692553, 45.924226], [16.688367, 45.839166], [16.496699, 45.765062], [16.50073, 45.721964], [16.616795, 45.662846], [16.790738, 45.609051], [16.929179, 45.475881], [17.016357, 45.50451], [17.418451, 45.513346], [17.430544, 45.574686], [17.491987, 45.675145], [17.385223, 45.702534], [17.27722, 45.803303], [17.14038, 45.870275]]]}, "properties": {"name": "Bjelovar-Bilogora", "code": "BJ", "id": "bj"}}, {"type": "Feature", "geometry": {"type": "Polygon", "coordinates": [[[16.136256, 45.970373], [15.965568, 45.911048], [15.939472, 45.933837], [15.81674, 45.91017], [15.77142, 45.867537], [15.846919, 45.809401], [15.773125, 45.700363], [15.921488, 45.622384], [15.966617, 45.716923], [16.226845, 45.849605], [16.136256, 45.970373]]]}, "properties": {"name": "Zagreb (Stadt)", "code": "ZG", "id": "zg-2"}}]}